{"type": "FeatureCollection", "features": [{"type": "Feature", "properties": {"norad_id": 26766, "name": "INTELSAT 10 (IS-10)", "group": "intelsat", "lat": -0.5769954684553007, "lon": 57.286388086512204, "alt_km": 36148.50509080018, "timestamp": "2025-12-02T10:50:46.940783+00:00", "meta": {"OBJECT_NAME": "INTELSAT 10 (IS-10)", "OBJECT_ID": "2001-019A", "EPOCH": "2025-12-01T11:39:24.752160", "MEAN_MOTION": 0.99077519, "ECCENTRICITY": 0.00076044, "INCLINATION": 8.6009, "RA_OF_ASC_NODE": 61.2665, "ARG_OF_PERICENTER": 217.709, "MEAN_ANOMALY": 153.5892, "EPHEMERIS_TYPE": 0, "CLASSIFICATION_TYPE": "U", "NORAD_CAT_ID": 26766, "ELEMENT_SET_NO": 999, "REV_AT_EPOCH": 4362, "BSTAR": 0, "MEAN_MOTION_DOT": -9.5e-07, "MEAN_MOTION_DDOT": 0}, "tle": {"line1": "1 26766U 01019A   25335.48570315 -.00000095  00000+0  00000+0 0  9992", "line2": "2 26766   8.6009  61.2665 0007604 217.7090 153.5892  0.99077519 43626"}}, "geometry": {"type": "Point", "coordinates": [57.286388086512204, -0.5769954684553007]}}, {"type": "Feature", "properties": {"norad_id": 26900, "name": "INTELSAT 902 (IS-902)", "group": "intelsat", "lat": 5.269315718287383, "lon": -175.84750240647256, "alt_km": 35778.23823268178, "timestamp": "2025-12-02T10:50:46.940807+00:00", "meta": {"OBJECT_NAME": "INTELSAT 902 (IS-902)", "OBJECT_ID": "2001-039A", "EPOCH": "2025-12-01T16:59:59.311104", "MEAN_MOTION": 1.00270327, "ECCENTRICITY": 0.000431, "INCLINATION": 5.6187, "RA_OF_ASC_NODE": 74.2002, "ARG_OF_PERICENTER": 175.119, "MEAN_ANOMALY": 26.3816, "EPHEMERIS_TYPE": 0, "CLASSIFICATION_TYPE": "U", "NORAD_CAT_ID": 26900, "ELEMENT_SET_NO": 999, "REV_AT_EPOCH": 8871, "BSTAR": 0, "MEAN_MOTION_DOT": -2.63e-06, "MEAN_MOTION_DDOT": 0}, "tle": {"line1": "1 26900U 01039A   25335.70832536 -.00000263  00000+0  00000+0 0  9992", "line2": "2 26900   5.6187  74.2002 0004310 175.1190  26.3816  1.00270327 88715"}}, "geometry": {"type": "Point", "coordinates": [-175.84750240647256, 5.269315718287383]}}, {"type": "Feature", "properties": {"norad_id": 27380, "name": "INTELSAT 904 (IS-904)", "group": "intelsat", "lat": 4.812751927200302, "lon": -157.09170454698315, "alt_km": 35783.47619125019, "timestamp": "2025-12-02T10:50:46.940822+00:00", "meta": {"OBJECT_NAME": "INTELSAT 904 (IS-904)", "OBJECT_ID": "2002-007A", "EPOCH": "2025-12-02T03:21:43.154784", "MEAN_MOTION": 1.0026967, "ECCENTRICITY": 0.0001502, "INCLINATION": 6.4264, "RA_OF_ASC_NODE": 71.5525, "ARG_OF_PERICENTER": 197.1555, "MEAN_ANOMALY": 181.4839, "EPHEMERIS_TYPE": 0, "CLASSIFICATION_TYPE": "U", "NORAD_CAT_ID": 27380, "ELEMENT_SET_NO": 999, "REV_AT_EPOCH": 4979, "BSTAR": 0, "MEAN_MOTION_DOT": -2.07e-06, "MEAN_MOTION_DDOT": 0}, "tle": {"line1": "1 27380U 02007A   25336.14008281 -.00000207  00000+0  00000+0 0  9990", "line2": "2 27380   6.4264  71.5525 0001502 197.1555 181.4839  1.00269670 49794"}}, "geometry": {"type": "Point", "coordinates": [-157.09170454698315, 4.812751927200302]}}, {"type": "Feature", "properties": {"norad_id": 27426, "name": "DIRECTV 5 (TEMPO 1)", "group": "intelsat", "lat": 3.1683138422602246, "lon": 123.99560849451629, "alt_km": 35797.82657341381, "timestamp": "2025-12-02T10:50:46.940836+00:00", "meta": {"OBJECT_NAME": "DIRECTV 5 (TEMPO 1)", "OBJECT_ID": "2002-023A", "EPOCH": "2025-12-01T22:57:27.363744", "MEAN_MOTION": 1.00271136, "ECCENTRICITY": 0.0003662, "INCLINATION": 4.3723, "RA_OF_ASC_NODE": 77.779, "ARG_OF_PERICENTER": 187.0649, "MEAN_ANOMALY": 40.4656, "EPHEMERIS_TYPE": 0, "CLASSIFICATION_TYPE": "U", "NORAD_CAT_ID": 27426, "ELEMENT_SET_NO": 999, "REV_AT_EPOCH": 8614, "BSTAR": 0, "MEAN_MOTION_DOT": -3.7e-07, "MEAN_MOTION_DDOT": 0}, "tle": {"line1": "1 27426U 02023A   25335.95656671 -.00000037  00000+0  00000+0 0  9990", "line2": "2 27426   4.3723  77.7790 0003662 187.0649  40.4656  1.00271136 86146"}}, "geometry": {"type": "Point", "coordinates": [123.99560849451629, 3.1683138422602246]}}, {"type": "Feature", "properties": {"norad_id": 27438, "name": "INTELSAT 905 (IS-905)", "group": "intelsat", "lat": 2.6441000310878824, "lon": 96.89511766938409, "alt_km": 35797.40166472887, "timestamp": "2025-12-02T10:50:46.940849+00:00", "meta": {"OBJECT_NAME": "INTELSAT 905 (IS-905)", "OBJECT_ID": "2002-027A", "EPOCH": "2025-12-01T11:26:53.712384", "MEAN_MOTION": 1.00272635, "ECCENTRICITY": 0.00030034, "INCLINATION": 6.255, "RA_OF_ASC_NODE": 72.1839, "ARG_OF_PERICENTER": 185.4215, "MEAN_ANOMALY": 207.5171, "EPHEMERIS_TYPE": 0, "CLASSIFICATION_TYPE": "U", "NORAD_CAT_ID": 27438, "ELEMENT_SET_NO": 999, "REV_AT_EPOCH": 4938, "BSTAR": 0, "MEAN_MOTION_DOT": 1.14e-06, "MEAN_MOTION_DDOT": 0}, "tle": {"line1": "1 27438U 02027A   25335.47701056  .00000114  00000+0  00000+0 0  9997", "line2": "2 27438   6.2550  72.1839 0003003 185.4215 207.5171  1.00272635 49389"}}, "geometry": {"type": "Point", "coordinates": [96.89511766938409, 2.6441000310878824]}}, {"type": "Feature", "properties": {"norad_id": 27445, "name": "GALAXY 3C (G-3C)", "group": "intelsat", "lat": 2.7665168294860547, "lon": 139.32268722464414, "alt_km": 35781.736847871194, "timestamp": "2025-12-02T10:50:46.940861+00:00", "meta": {"OBJECT_NAME": "GALAXY 3C (G-3C)", "OBJECT_ID": "2002-030A", "EPOCH": "2025-12-02T04:50:16.810944", "MEAN_MOTION": 1.00270439, "ECCENTRICITY": 0.0001324, "INCLINATION": 3.2359, "RA_OF_ASC_NODE": 80.6133, "ARG_OF_PERICENTER": 96.6523, "MEAN_ANOMALY": 231.7594, "EPHEMERIS_TYPE": 0, "CLASSIFICATION_TYPE": "U", "NORAD_CAT_ID": 27445, "ELEMENT_SET_NO": 999, "REV_AT_EPOCH": 4451, "BSTAR": 0, "MEAN_MOTION_DOT": -1.32e-06, "MEAN_MOTION_DDOT": 0}, "tle": {"line1": "1 27445U 02030A   25336.20158346 -.00000132  00000+0  00000+0 0  9990", "line2": "2 27445   3.2359  80.6133 0001324  96.6523 231.7594  1.00270439 44519"}}, "geometry": {"type": "Point", "coordinates": [139.32268722464414, 2.7665168294860547]}}, {"type": "Feature", "properties": {"norad_id": 27513, "name": "INTELSAT 906 (IS-906)", "group": "intelsat", "lat": -3.6277954018399847, "lon": -61.720467423220555, "alt_km": 35764.33634232315, "timestamp": "2025-12-02T10:50:46.940873+00:00", "meta": {"OBJECT_NAME": "INTELSAT 906 (IS-906)", "OBJECT_ID": "2002-041A", "EPOCH": "2025-12-02T00:41:51.813024", "MEAN_MOTION": 1.00272894, "ECCENTRICITY": 0.0006111, "INCLINATION": 5.3019, "RA_OF_ASC_NODE": 75.3582, "ARG_OF_PERICENTER": 191.023, "MEAN_ANOMALY": 239.354, "EPHEMERIS_TYPE": 0, "CLASSIFICATION_TYPE": "U", "NORAD_CAT_ID": 27513, "ELEMENT_SET_NO": 999, "REV_AT_EPOCH": 8505, "BSTAR": 0, "MEAN_MOTION_DOT": 3.2e-07, "MEAN_MOTION_DDOT": 0}, "tle": {"line1": "1 27513U 02041A   25336.02907191  .00000032  00000+0  00000+0 0  9996", "line2": "2 27513   5.3019  75.3582 0006111 191.0230 239.3540  1.00272894 85050"}}, "geometry": {"type": "Point", "coordinates": [-61.720467423220555, -3.6277954018399847]}}, {"type": "Feature", "properties": {"norad_id": 27954, "name": "GALAXY 13 (HORIZONS-1)", "group": "intelsat", "lat": -0.019021179762200326, "lon": 84.20765605506946, "alt_km": 35794.365478848005, "timestamp": "2025-12-02T10:50:46.940885+00:00", "meta": {"OBJECT_NAME": "GALAXY 13 (HORIZONS-1)", "OBJECT_ID": "2003-044A", "EPOCH": "2025-12-02T02:47:56.126112", "MEAN_MOTION": 1.00271949, "ECCENTRICITY": 0.0002087, "INCLINATION": 0.9081, "RA_OF_ASC_NODE": 86.5991, "ARG_OF_PERICENTER": 158.6451, "MEAN_ANOMALY": 77.9559, "EPHEMERIS_TYPE": 0, "CLASSIFICATION_TYPE": "U", "NORAD_CAT_ID": 27954, "ELEMENT_SET_NO": 999, "REV_AT_EPOCH": 4459, "BSTAR": 0, "MEAN_MOTION_DOT": 1.54e-06, "MEAN_MOTION_DDOT": 0}, "tle": {"line1": "1 27954U 03044A   25336.11662183  .00000154  00000+0  00000+0 0  9993", "line2": "2 27954   0.9081  86.5991 0002087 158.6451  77.9559  1.00271949 44599"}}, "geometry": {"type": "Point", "coordinates": [84.20765605506946, -0.019021179762200326]}}, {"type": "Feature", "properties": {"norad_id": 28358, "name": "INTELSAT 10-02", "group": "intelsat", "lat": -0.014960566338701183, "lon": -126.77474044265097, "alt_km": 35782.36901385675, "timestamp": "2025-12-02T10:50:46.940914+00:00", "meta": {"OBJECT_NAME": "INTELSAT 10-02", "OBJECT_ID": "2004-022A", "EPOCH": "2025-12-02T03:30:27.320256", "MEAN_MOTION": 1.0027242, "ECCENTRICITY": 0.0001164, "INCLINATION": 0.0375, "RA_OF_ASC_NODE": 83.6948, "ARG_OF_PERICENTER": 193.9573, "MEAN_ANOMALY": 205.2269, "EPHEMERIS_TYPE": 0, "CLASSIFICATION_TYPE": "U", "NORAD_CAT_ID": 28358, "ELEMENT_SET_NO": 999, "REV_AT_EPOCH": 7858, "BSTAR": 0, "MEAN_MOTION_DOT": 1e-07, "MEAN_MOTION_DDOT": 0}, "tle": {"line1": "1 28358U 04022A   25336.14614954  .00000010  00000+0  00000+0 0  9996", "line2": "2 28358   0.0375  83.6948 0001164 193.9573 205.2269  1.00272420 78582"}}, "geometry": {"type": "Point", "coordinates": [-126.77474044265097, -0.014960566338701183]}}, {"type": "Feature", "properties": {"norad_id": 28626, "name": "XM-3 (RHYTHM)", "group": "intelsat", "lat": -0.07200671438529455, "lon": 37.34259480399331, "alt_km": 36156.82540760379, "timestamp": "2025-12-02T10:50:46.940927+00:00", "meta": {"OBJECT_NAME": "XM-3 (RHYTHM)", "OBJECT_ID": "2005-008A", "EPOCH": "2025-12-01T16:19:10.717824", "MEAN_MOTION": 0.98955107, "ECCENTRICITY": 8.38e-05, "INCLINATION": 0.1433, "RA_OF_ASC_NODE": 80.6256, "ARG_OF_PERICENTER": 270.4663, "MEAN_ANOMALY": 131.2697, "EPHEMERIS_TYPE": 0, "CLASSIFICATION_TYPE": "U", "NORAD_CAT_ID": 28626, "ELEMENT_SET_NO": 999, "REV_AT_EPOCH": 4064, "BSTAR": 0, "MEAN_MOTION_DOT": -2.1e-06, "MEAN_MOTION_DDOT": 0}, "tle": {"line1": "1 28626U 05008A   25335.67998516 -.00000210  00000+0  00000+0 0  9998", "line2": "2 28626   0.1433  80.6256 0000838 270.4663 131.2697  0.98955107 40648"}}, "geometry": {"type": "Point", "coordinates": [37.34259480399331, -0.07200671438529455]}}]}